STARLINK-36766          
1 68069U 26042A   26086.20801990  .00299378  00000+0  14675-2 0  9996
2 68069  53.1582 106.9837 0001061  11.5375 348.5672 15.80885633  4858
STARLINK-36823          
1 68070U 26042B   26086.20726880  .00415300  00000+0  20064-2 0  9996
2 68070  53.1577 106.9783 0000852  54.7763 305.3339 15.80890195  4851
STARLINK-36970          
1 68071U 26042C   26086.16670139 -.00027408  00000+0 -17503-3 0  9992
2 68071  53.1597 107.2459 0001071 107.1448 349.6858 15.75261173  4865
STARLINK-36972          
1 68072U 26042D   26086.20651971  .00410898  00000+0  19859-2 0  9993
2 68072  53.1574 106.9729 0001224  13.7459 346.3597 15.80894302  4856
STARLINK-37074          
1 68073U 26042E   26086.20514326  .00304349  00000+0  15610-2 0  9990
2 68073  53.1573 106.9638 0002873 346.7161  13.3785 15.79880603  4852
STARLINK-37045          
1 68074U 26042F   26085.66667824  .00045324  00000+0  29849-3 0  9997
2 68074  53.1592 109.8903 0001101  83.1931 339.2027 15.75220787  4789
STARLINK-37026          
1 68075U 26042G   26086.04577372  .00487338  00000+0  29714-2 0  9994
2 68075  53.1573 108.1139 0001459 130.4926 229.6222 15.75487446  4829
STARLINK-37023          
1 68076U 26042H   26085.53301767  .00174495  00000+0  11170-2 0  9995
2 68076  53.1579 110.6014 0001196 102.1038 258.0116 15.75282714  4744
STARLINK-37036          
1 68077U 26042J   26086.04091336  .00447368  00000+0  27388-2 0  9991
2 68077  53.1576 108.0814 0001232 124.5696 235.5441 15.75506916  4823
STARLINK-36973          
1 68078U 26042K   26086.16670139 -.00195811  00000+0 -12975-2 0  9990
2 68078  53.1593 107.1394 0001361  95.7011  52.6381 15.75332600  4861
STARLINK-37063          
1 68079U 26042L   26086.07482590  .00513511  00000+0  24276-2 0  9999
2 68079  53.1571 107.5709 0000549 280.1486  79.9475 15.81103462  4837
STARLINK-37051          
1 68080U 26042M   26086.16670139 -.00112044  00000+0 -73484-3 0  9993
2 68080  53.1596 107.1918 0001111 113.4638   9.1406 15.75288691  4860
