CCSDS_OMM_VERS = 2.0
CREATION_DATE  = 
ORIGINATOR     = 

OBJECT_NAME    = STARLINK-36766
OBJECT_ID      = 2026-042A
CENTER_NAME    = EARTH
REF_FRAME      = TEME
TIME_SYSTEM    = UTC
MEAN_ELEMENT_THEORY = SGP/SGP4

EPOCH          = 2026-03-27T04:59:32.919360
MEAN_MOTION    = 15.80885633
ECCENTRICITY   = .0001061
INCLINATION    = 53.1582
RA_OF_ASC_NODE = 106.9837
ARG_OF_PERICENTER = 11.5375
MEAN_ANOMALY   = 348.5672

EPHEMERIS_TYPE = 0
CLASSIFICATION_TYPE = U
NORAD_CAT_ID   = 68069
ELEMENT_SET_NO = 999
REV_AT_EPOCH   = 485
BSTAR          = .14675E-2
MEAN_MOTION_DOT = .299378E-2
MEAN_MOTION_DDOT = 0

CCSDS_OMM_VERS = 2.0
CREATION_DATE  = 
ORIGINATOR     = 

OBJECT_NAME    = STARLINK-36823
OBJECT_ID      = 2026-042B
CENTER_NAME    = EARTH
REF_FRAME      = TEME
TIME_SYSTEM    = UTC
MEAN_ELEMENT_THEORY = SGP/SGP4

EPOCH          = 2026-03-27T04:58:28.024320
MEAN_MOTION    = 15.80890195
ECCENTRICITY   = .0000852
INCLINATION    = 53.1577
RA_OF_ASC_NODE = 106.9783
ARG_OF_PERICENTER = 54.7763
MEAN_ANOMALY   = 305.3339

EPHEMERIS_TYPE = 0
CLASSIFICATION_TYPE = U
NORAD_CAT_ID   = 68070
ELEMENT_SET_NO = 999
REV_AT_EPOCH   = 485
BSTAR          = .20064E-2
MEAN_MOTION_DOT = .4153E-2
MEAN_MOTION_DDOT = 0

CCSDS_OMM_VERS = 2.0
CREATION_DATE  = 
ORIGINATOR     = 

OBJECT_NAME    = STARLINK-36970
OBJECT_ID      = 2026-042C
CENTER_NAME    = EARTH
REF_FRAME      = TEME
TIME_SYSTEM    = UTC
MEAN_ELEMENT_THEORY = SGP/SGP4

EPOCH          = 2026-03-27T04:00:03.000096
MEAN_MOTION    = 15.75261173
ECCENTRICITY   = .0001071
INCLINATION    = 53.1597
RA_OF_ASC_NODE = 107.2459
ARG_OF_PERICENTER = 107.1448
MEAN_ANOMALY   = 349.6858

EPHEMERIS_TYPE = 0
CLASSIFICATION_TYPE = U
NORAD_CAT_ID   = 68071
ELEMENT_SET_NO = 999
REV_AT_EPOCH   = 486
BSTAR          = -.17503E-3
MEAN_MOTION_DOT = -.27408E-3
MEAN_MOTION_DDOT = 0

CCSDS_OMM_VERS = 2.0
CREATION_DATE  = 
ORIGINATOR     = 

OBJECT_NAME    = STARLINK-36972
OBJECT_ID      = 2026-042D
CENTER_NAME    = EARTH
REF_FRAME      = TEME
TIME_SYSTEM    = UTC
MEAN_ELEMENT_THEORY = SGP/SGP4

EPOCH          = 2026-03-27T04:57:23.302944
MEAN_MOTION    = 15.80894302
ECCENTRICITY   = .0001224
INCLINATION    = 53.1574
RA_OF_ASC_NODE = 106.9729
ARG_OF_PERICENTER = 13.7459
MEAN_ANOMALY   = 346.3597

EPHEMERIS_TYPE = 0
CLASSIFICATION_TYPE = U
NORAD_CAT_ID   = 68072
ELEMENT_SET_NO = 999
REV_AT_EPOCH   = 485
BSTAR          = .19859E-2
MEAN_MOTION_DOT = .410898E-2
MEAN_MOTION_DDOT = 0

CCSDS_OMM_VERS = 2.0
CREATION_DATE  = 
ORIGINATOR     = 

OBJECT_NAME    = STARLINK-37074
OBJECT_ID      = 2026-042E
CENTER_NAME    = EARTH
REF_FRAME      = TEME
TIME_SYSTEM    = UTC
MEAN_ELEMENT_THEORY = SGP/SGP4

EPOCH          = 2026-03-27T04:55:24.377664
MEAN_MOTION    = 15.79880603
ECCENTRICITY   = .0002873
INCLINATION    = 53.1573
RA_OF_ASC_NODE = 106.9638
ARG_OF_PERICENTER = 346.7161
MEAN_ANOMALY   = 13.3785

EPHEMERIS_TYPE = 0
CLASSIFICATION_TYPE = U
NORAD_CAT_ID   = 68073
ELEMENT_SET_NO = 999
REV_AT_EPOCH   = 485
BSTAR          = .1561E-2
MEAN_MOTION_DOT = .304349E-2
MEAN_MOTION_DDOT = 0

CCSDS_OMM_VERS = 2.0
CREATION_DATE  = 
ORIGINATOR     = 

OBJECT_NAME    = STARLINK-37045
OBJECT_ID      = 2026-042F
CENTER_NAME    = EARTH
REF_FRAME      = TEME
TIME_SYSTEM    = UTC
MEAN_ELEMENT_THEORY = SGP/SGP4

EPOCH          = 2026-03-26T16:00:00.999936
MEAN_MOTION    = 15.75220787
ECCENTRICITY   = .0001101
INCLINATION    = 53.1592
RA_OF_ASC_NODE = 109.8903
ARG_OF_PERICENTER = 83.1931
MEAN_ANOMALY   = 339.2027

EPHEMERIS_TYPE = 0
CLASSIFICATION_TYPE = U
NORAD_CAT_ID   = 68074
ELEMENT_SET_NO = 999
REV_AT_EPOCH   = 478
BSTAR          = .2984897E-3
MEAN_MOTION_DOT = .45324E-3
MEAN_MOTION_DDOT = 0

CCSDS_OMM_VERS = 2.0
CREATION_DATE  = 
ORIGINATOR     = 

OBJECT_NAME    = STARLINK-37026
OBJECT_ID      = 2026-042G
CENTER_NAME    = EARTH
REF_FRAME      = TEME
TIME_SYSTEM    = UTC
MEAN_ELEMENT_THEORY = SGP/SGP4

EPOCH          = 2026-03-27T01:05:54.849408
MEAN_MOTION    = 15.75487446
ECCENTRICITY   = .0001459
INCLINATION    = 53.1573
RA_OF_ASC_NODE = 108.1139
ARG_OF_PERICENTER = 130.4926
MEAN_ANOMALY   = 229.6222

EPHEMERIS_TYPE = 0
CLASSIFICATION_TYPE = U
NORAD_CAT_ID   = 68075
ELEMENT_SET_NO = 999
REV_AT_EPOCH   = 482
BSTAR          = .29714E-2
MEAN_MOTION_DOT = .487338E-2
MEAN_MOTION_DDOT = 0

CCSDS_OMM_VERS = 2.0
CREATION_DATE  = 
ORIGINATOR     = 

OBJECT_NAME    = STARLINK-37023
OBJECT_ID      = 2026-042H
CENTER_NAME    = EARTH
REF_FRAME      = TEME
TIME_SYSTEM    = UTC
MEAN_ELEMENT_THEORY = SGP/SGP4

EPOCH          = 2026-03-26T12:47:32.726688
MEAN_MOTION    = 15.75282714
ECCENTRICITY   = .00011964
INCLINATION    = 53.1579
RA_OF_ASC_NODE = 110.6014
ARG_OF_PERICENTER = 102.1038
MEAN_ANOMALY   = 258.0116

EPHEMERIS_TYPE = 0
CLASSIFICATION_TYPE = U
NORAD_CAT_ID   = 68076
ELEMENT_SET_NO = 999
REV_AT_EPOCH   = 474
BSTAR          = .111702E-2
MEAN_MOTION_DOT = .174495E-2
MEAN_MOTION_DDOT = 0

CCSDS_OMM_VERS = 2.0
CREATION_DATE  = 
ORIGINATOR     = 

OBJECT_NAME    = STARLINK-37036
OBJECT_ID      = 2026-042J
CENTER_NAME    = EARTH
REF_FRAME      = TEME
TIME_SYSTEM    = UTC
MEAN_ELEMENT_THEORY = SGP/SGP4

EPOCH          = 2026-03-27T00:58:54.914304
MEAN_MOTION    = 15.75506916
ECCENTRICITY   = .0001232
INCLINATION    = 53.1576
RA_OF_ASC_NODE = 108.0814
ARG_OF_PERICENTER = 124.5696
MEAN_ANOMALY   = 235.5441

EPHEMERIS_TYPE = 0
CLASSIFICATION_TYPE = U
NORAD_CAT_ID   = 68077
ELEMENT_SET_NO = 999
REV_AT_EPOCH   = 482
BSTAR          = .27388E-2
MEAN_MOTION_DOT = .447368E-2
MEAN_MOTION_DDOT = 0

CCSDS_OMM_VERS = 2.0
CREATION_DATE  = 
ORIGINATOR     = 

OBJECT_NAME    = STARLINK-36973
OBJECT_ID      = 2026-042K
CENTER_NAME    = EARTH
REF_FRAME      = TEME
TIME_SYSTEM    = UTC
MEAN_ELEMENT_THEORY = SGP/SGP4

EPOCH          = 2026-03-27T04:00:03.000096
MEAN_MOTION    = 15.75332600
ECCENTRICITY   = .0001361
INCLINATION    = 53.1593
RA_OF_ASC_NODE = 107.1394
ARG_OF_PERICENTER = 95.7011
MEAN_ANOMALY   = 52.6381

EPHEMERIS_TYPE = 0
CLASSIFICATION_TYPE = U
NORAD_CAT_ID   = 68078
ELEMENT_SET_NO = 999
REV_AT_EPOCH   = 486
BSTAR          = -.12975E-2
MEAN_MOTION_DOT = -.195811E-2
MEAN_MOTION_DDOT = 0

CCSDS_OMM_VERS = 2.0
CREATION_DATE  = 
ORIGINATOR     = 

OBJECT_NAME    = STARLINK-37063
OBJECT_ID      = 2026-042L
CENTER_NAME    = EARTH
REF_FRAME      = TEME
TIME_SYSTEM    = UTC
MEAN_ELEMENT_THEORY = SGP/SGP4

EPOCH          = 2026-03-27T01:47:44.957760
MEAN_MOTION    = 15.81103462
ECCENTRICITY   = .0000549
INCLINATION    = 53.1571
RA_OF_ASC_NODE = 107.5709
ARG_OF_PERICENTER = 280.1486
MEAN_ANOMALY   = 79.9475

EPHEMERIS_TYPE = 0
CLASSIFICATION_TYPE = U
NORAD_CAT_ID   = 68079
ELEMENT_SET_NO = 999
REV_AT_EPOCH   = 483
BSTAR          = .24276E-2
MEAN_MOTION_DOT = .513511E-2
MEAN_MOTION_DDOT = 0

CCSDS_OMM_VERS = 2.0
CREATION_DATE  = 
ORIGINATOR     = 

OBJECT_NAME    = STARLINK-37051
OBJECT_ID      = 2026-042M
CENTER_NAME    = EARTH
REF_FRAME      = TEME
TIME_SYSTEM    = UTC
MEAN_ELEMENT_THEORY = SGP/SGP4

EPOCH          = 2026-03-27T04:00:03.000096
MEAN_MOTION    = 15.75288691
ECCENTRICITY   = .0001111
INCLINATION    = 53.1596
RA_OF_ASC_NODE = 107.1918
ARG_OF_PERICENTER = 113.4638
MEAN_ANOMALY   = 9.1406

EPHEMERIS_TYPE = 0
CLASSIFICATION_TYPE = U
NORAD_CAT_ID   = 68080
ELEMENT_SET_NO = 999
REV_AT_EPOCH   = 486
BSTAR          = -.73484E-3
MEAN_MOTION_DOT = -.112044E-2
MEAN_MOTION_DDOT = 0

